SOYUZ-MS 28             
1 66664U 25275A   25360.53473603  .00013978  00000+0  25382-3 0  9996
2 66664  51.6320  74.1581 0003231 305.5588  54.5099 15.49844261  4589
FORMOSAT-8A             
1 66666U 25276A   25360.76739159  .00004481  00000+0  36151-3 0  9990
2 66666  97.6576  72.5011 0004112 181.7778 178.3432 15.00369732  4193
PELICAN-5               
1 66667U 25276B   25360.78040977  .00005175  00000+0  26055-3 0  9999
2 66667  97.4406  72.3118 0002485 196.9912 163.1239 15.17626878  4258
TRANSPORTER-15C         
1 66668U 25276C   25360.52837249  .00016393  00000+0  71782-3 0  9999
2 66668  97.4332  71.9879 0016178 258.9437 100.9979 15.21988406  4210
TRANSPORTER-15D         
1 66669U 25276D   25360.20014095  .00024063  00000+0  12000-2 0  9991
2 66669  97.4282  71.6689 0007470 258.0077 102.0320 15.17501415  4160
HUNITY                  
1 66670U 25276E   25360.72821579  .00734474  00000+0  33111-1 0  9992
2 66670  97.4295  72.1877 0011377 255.2041 104.7933 15.18497521  4243
TRANSPORTER-15F         
1 66671U 25276F   25360.79279203  .00013265  00000+0  66967-3 0  9996
2 66671  97.4417  72.2964 0005174 234.7484 125.3266 15.17214781  4252
TRANSPORTER-15G         
1 66672U 25276G   25360.73296896  .00008405  00000+0  43252-3 0  9990
2 66672  97.4390  72.2143 0005564 233.2120 126.8603 15.16664193  4241
TRANSPORTER-15H         
1 66673U 25276H   25360.65622381  .00320359  00000+0  13348-1 0  9990
2 66673  97.4359  72.1511 0024005 293.5495  66.3220 15.22035425  4239
TRANSPORTER-15J         
1 66674U 25276J   25360.79687582  .00008846  00000+0  45342-3 0  9995
2 66674  97.4369  72.2744 0005200 236.8825 123.1909 15.16788054  4257
TRANSPORTER-15K         
1 66675U 25276K   25360.72811142  .00011989  00000+0  60767-3 0  9990
2 66675  97.4382  72.2179 0005081 241.8148 118.2572 15.17099785  4243
TRANSPORTER-15L         
1 66676U 25276L   25360.79576885  .02302867  00000+0  96980-1 0  9994
2 66676  97.4379  72.2830 0016361 248.1605 111.7890 15.19846663  4254
