CCSDS_OMM_VERS = 2.0
CREATION_DATE  = 
ORIGINATOR     = 

OBJECT_NAME    = SOYUZ-MS 28
OBJECT_ID      = 2025-275A
CENTER_NAME    = EARTH
REF_FRAME      = TEME
TIME_SYSTEM    = UTC
MEAN_ELEMENT_THEORY = SGP/SGP4

EPOCH          = 2025-12-26T12:50:01.192992
MEAN_MOTION    = 15.49844261
ECCENTRICITY   = .0003231
INCLINATION    = 51.6320
RA_OF_ASC_NODE = 74.1581
ARG_OF_PERICENTER = 305.5588
MEAN_ANOMALY   = 54.5099

EPHEMERIS_TYPE = 0
CLASSIFICATION_TYPE = U
NORAD_CAT_ID   = 66664
ELEMENT_SET_NO = 999
REV_AT_EPOCH   = 458
BSTAR          = .25382E-3
MEAN_MOTION_DOT = .13978E-3
MEAN_MOTION_DDOT = 0

CCSDS_OMM_VERS = 2.0
CREATION_DATE  = 
ORIGINATOR     = 

OBJECT_NAME    = FORMOSAT-8A
OBJECT_ID      = 2025-276A
CENTER_NAME    = EARTH
REF_FRAME      = TEME
TIME_SYSTEM    = UTC
MEAN_ELEMENT_THEORY = SGP/SGP4

EPOCH          = 2025-12-26T18:25:02.633376
MEAN_MOTION    = 15.00369732
ECCENTRICITY   = .0004112
INCLINATION    = 97.6576
RA_OF_ASC_NODE = 72.5011
ARG_OF_PERICENTER = 181.7778
MEAN_ANOMALY   = 178.3432

EPHEMERIS_TYPE = 0
CLASSIFICATION_TYPE = U
NORAD_CAT_ID   = 66666
ELEMENT_SET_NO = 999
REV_AT_EPOCH   = 419
BSTAR          = .36151E-3
MEAN_MOTION_DOT = .4481E-4
MEAN_MOTION_DDOT = 0

CCSDS_OMM_VERS = 2.0
CREATION_DATE  = 
ORIGINATOR     = 

OBJECT_NAME    = PELICAN-5
OBJECT_ID      = 2025-276B
CENTER_NAME    = EARTH
REF_FRAME      = TEME
TIME_SYSTEM    = UTC
MEAN_ELEMENT_THEORY = SGP/SGP4

EPOCH          = 2025-12-26T18:43:47.404128
MEAN_MOTION    = 15.17626878
ECCENTRICITY   = .0002485
INCLINATION    = 97.4406
RA_OF_ASC_NODE = 72.3118
ARG_OF_PERICENTER = 196.9912
MEAN_ANOMALY   = 163.1239

EPHEMERIS_TYPE = 0
CLASSIFICATION_TYPE = U
NORAD_CAT_ID   = 66667
ELEMENT_SET_NO = 999
REV_AT_EPOCH   = 425
BSTAR          = .26055E-3
MEAN_MOTION_DOT = .5175E-4
MEAN_MOTION_DDOT = 0

CCSDS_OMM_VERS = 2.0
CREATION_DATE  = 
ORIGINATOR     = 

OBJECT_NAME    = TRANSPORTER-15C
OBJECT_ID      = 2025-276C
CENTER_NAME    = EARTH
REF_FRAME      = TEME
TIME_SYSTEM    = UTC
MEAN_ELEMENT_THEORY = SGP/SGP4

EPOCH          = 2025-12-26T12:40:51.383136
MEAN_MOTION    = 15.21988406
ECCENTRICITY   = .0016178
INCLINATION    = 97.4332
RA_OF_ASC_NODE = 71.9879
ARG_OF_PERICENTER = 258.9437
MEAN_ANOMALY   = 100.9979

EPHEMERIS_TYPE = 0
CLASSIFICATION_TYPE = U
NORAD_CAT_ID   = 66668
ELEMENT_SET_NO = 999
REV_AT_EPOCH   = 421
BSTAR          = .71782E-3
MEAN_MOTION_DOT = .16393E-3
MEAN_MOTION_DDOT = 0

CCSDS_OMM_VERS = 2.0
CREATION_DATE  = 
ORIGINATOR     = 

OBJECT_NAME    = TRANSPORTER-15D
OBJECT_ID      = 2025-276D
CENTER_NAME    = EARTH
REF_FRAME      = TEME
TIME_SYSTEM    = UTC
MEAN_ELEMENT_THEORY = SGP/SGP4

EPOCH          = 2025-12-26T04:48:12.178080
MEAN_MOTION    = 15.17501415
ECCENTRICITY   = .000747
INCLINATION    = 97.4282
RA_OF_ASC_NODE = 71.6689
ARG_OF_PERICENTER = 258.0077
MEAN_ANOMALY   = 102.0320

EPHEMERIS_TYPE = 0
CLASSIFICATION_TYPE = U
NORAD_CAT_ID   = 66669
ELEMENT_SET_NO = 999
REV_AT_EPOCH   = 416
BSTAR          = .12E-2
MEAN_MOTION_DOT = .24063E-3
MEAN_MOTION_DDOT = 0

CCSDS_OMM_VERS = 2.0
CREATION_DATE  = 
ORIGINATOR     = 

OBJECT_NAME    = HUNITY
OBJECT_ID      = 2025-276E
CENTER_NAME    = EARTH
REF_FRAME      = TEME
TIME_SYSTEM    = UTC
MEAN_ELEMENT_THEORY = SGP/SGP4

EPOCH          = 2025-12-26T17:28:37.844256
MEAN_MOTION    = 15.18497521
ECCENTRICITY   = .0011377
INCLINATION    = 97.4295
RA_OF_ASC_NODE = 72.1877
ARG_OF_PERICENTER = 255.2041
MEAN_ANOMALY   = 104.7933

EPHEMERIS_TYPE = 0
CLASSIFICATION_TYPE = U
NORAD_CAT_ID   = 66670
ELEMENT_SET_NO = 999
REV_AT_EPOCH   = 424
BSTAR          = .33111E-1
MEAN_MOTION_DOT = .734474E-2
MEAN_MOTION_DDOT = 0

CCSDS_OMM_VERS = 2.0
CREATION_DATE  = 
ORIGINATOR     = 

OBJECT_NAME    = TRANSPORTER-15F
OBJECT_ID      = 2025-276F
CENTER_NAME    = EARTH
REF_FRAME      = TEME
TIME_SYSTEM    = UTC
MEAN_ELEMENT_THEORY = SGP/SGP4

EPOCH          = 2025-12-26T19:01:37.231392
MEAN_MOTION    = 15.17214781
ECCENTRICITY   = .0005174
INCLINATION    = 97.4417
RA_OF_ASC_NODE = 72.2964
ARG_OF_PERICENTER = 234.7484
MEAN_ANOMALY   = 125.3266

EPHEMERIS_TYPE = 0
CLASSIFICATION_TYPE = U
NORAD_CAT_ID   = 66671
ELEMENT_SET_NO = 999
REV_AT_EPOCH   = 425
BSTAR          = .66967E-3
MEAN_MOTION_DOT = .13265E-3
MEAN_MOTION_DDOT = 0

CCSDS_OMM_VERS = 2.0
CREATION_DATE  = 
ORIGINATOR     = 

OBJECT_NAME    = TRANSPORTER-15G
OBJECT_ID      = 2025-276G
CENTER_NAME    = EARTH
REF_FRAME      = TEME
TIME_SYSTEM    = UTC
MEAN_ELEMENT_THEORY = SGP/SGP4

EPOCH          = 2025-12-26T17:35:28.518144
MEAN_MOTION    = 15.16664193
ECCENTRICITY   = .0005564
INCLINATION    = 97.4390
RA_OF_ASC_NODE = 72.2143
ARG_OF_PERICENTER = 233.2120
MEAN_ANOMALY   = 126.8603

EPHEMERIS_TYPE = 0
CLASSIFICATION_TYPE = U
NORAD_CAT_ID   = 66672
ELEMENT_SET_NO = 999
REV_AT_EPOCH   = 424
BSTAR          = .43252E-3
MEAN_MOTION_DOT = .8405E-4
MEAN_MOTION_DDOT = 0

CCSDS_OMM_VERS = 2.0
CREATION_DATE  = 
ORIGINATOR     = 

OBJECT_NAME    = TRANSPORTER-15H
OBJECT_ID      = 2025-276H
CENTER_NAME    = EARTH
REF_FRAME      = TEME
TIME_SYSTEM    = UTC
MEAN_ELEMENT_THEORY = SGP/SGP4

EPOCH          = 2025-12-26T15:44:57.737184
MEAN_MOTION    = 15.22035425
ECCENTRICITY   = .0024005
INCLINATION    = 97.4359
RA_OF_ASC_NODE = 72.1511
ARG_OF_PERICENTER = 293.5495
MEAN_ANOMALY   = 66.3220

EPHEMERIS_TYPE = 0
CLASSIFICATION_TYPE = U
NORAD_CAT_ID   = 66673
ELEMENT_SET_NO = 999
REV_AT_EPOCH   = 423
BSTAR          = .13348E-1
MEAN_MOTION_DOT = .320359E-2
MEAN_MOTION_DDOT = 0

CCSDS_OMM_VERS = 2.0
CREATION_DATE  = 
ORIGINATOR     = 

OBJECT_NAME    = TRANSPORTER-15J
OBJECT_ID      = 2025-276J
CENTER_NAME    = EARTH
REF_FRAME      = TEME
TIME_SYSTEM    = UTC
MEAN_ELEMENT_THEORY = SGP/SGP4

EPOCH          = 2025-12-26T19:07:30.070848
MEAN_MOTION    = 15.16788054
ECCENTRICITY   = .00052
INCLINATION    = 97.4369
RA_OF_ASC_NODE = 72.2744
ARG_OF_PERICENTER = 236.8825
MEAN_ANOMALY   = 123.1909

EPHEMERIS_TYPE = 0
CLASSIFICATION_TYPE = U
NORAD_CAT_ID   = 66674
ELEMENT_SET_NO = 999
REV_AT_EPOCH   = 425
BSTAR          = .45342E-3
MEAN_MOTION_DOT = .8846E-4
MEAN_MOTION_DDOT = 0

CCSDS_OMM_VERS = 2.0
CREATION_DATE  = 
ORIGINATOR     = 

OBJECT_NAME    = TRANSPORTER-15K
OBJECT_ID      = 2025-276K
CENTER_NAME    = EARTH
REF_FRAME      = TEME
TIME_SYSTEM    = UTC
MEAN_ELEMENT_THEORY = SGP/SGP4

EPOCH          = 2025-12-26T17:28:28.826688
MEAN_MOTION    = 15.17099785
ECCENTRICITY   = .0005081
INCLINATION    = 97.4382
RA_OF_ASC_NODE = 72.2179
ARG_OF_PERICENTER = 241.8148
MEAN_ANOMALY   = 118.2572

EPHEMERIS_TYPE = 0
CLASSIFICATION_TYPE = U
NORAD_CAT_ID   = 66675
ELEMENT_SET_NO = 999
REV_AT_EPOCH   = 424
BSTAR          = .60767E-3
MEAN_MOTION_DOT = .11989E-3
MEAN_MOTION_DDOT = 0

CCSDS_OMM_VERS = 2.0
CREATION_DATE  = 
ORIGINATOR     = 

OBJECT_NAME    = TRANSPORTER-15L
OBJECT_ID      = 2025-276L
CENTER_NAME    = EARTH
REF_FRAME      = TEME
TIME_SYSTEM    = UTC
MEAN_ELEMENT_THEORY = SGP/SGP4

EPOCH          = 2025-12-26T19:05:54.428640
MEAN_MOTION    = 15.19846663
ECCENTRICITY   = .0016361
INCLINATION    = 97.4379
RA_OF_ASC_NODE = 72.2830
ARG_OF_PERICENTER = 248.1605
MEAN_ANOMALY   = 111.7890

EPHEMERIS_TYPE = 0
CLASSIFICATION_TYPE = U
NORAD_CAT_ID   = 66676
ELEMENT_SET_NO = 999
REV_AT_EPOCH   = 425
BSTAR          = .9698E-1
MEAN_MOTION_DOT = .2302867E-1
MEAN_MOTION_DDOT = 0

